[{"OBJECT_NAME":"HAWK-6A","OBJECT_ID":"2023-011D","EPOCH":"2026-04-04T06:16:52.309920","MEAN_MOTION":15.22257812,"ECCENTRICITY":0.00042073,"INCLINATION":40.5,"RA_OF_ASC_NODE":61.4961,"ARG_OF_PERICENTER":236.1615,"MEAN_ANOMALY":123.8794,"EPHEMERIS_TYPE":0,"CLASSIFICATION_TYPE":"U","NORAD_CAT_ID":55327,"ELEMENT_SET_NO":999,"REV_AT_EPOCH":17658,"BSTAR":0.00044688986,"MEAN_MOTION_DOT":0.00010319,"MEAN_MOTION_DDOT":0},{"OBJECT_NAME":"HAWK-7A","OBJECT_ID":"2023-054P","EPOCH":"2026-04-04T06:08:51.379008","MEAN_MOTION":15.26593098,"ECCENTRICITY":0.00016619,"INCLINATION":97.2796,"RA_OF_ASC_NODE":343.4757,"ARG_OF_PERICENTER":335.9513,"MEAN_ANOMALY":24.1648,"EPHEMERIS_TYPE":0,"CLASSIFICATION_TYPE":"U","NORAD_CAT_ID":56191,"ELEMENT_SET_NO":999,"REV_AT_EPOCH":16574,"BSTAR":0.00052820209,"MEAN_MOTION_DOT":0.00013767,"MEAN_MOTION_DDOT":0},{"OBJECT_NAME":"HAWK-7B","OBJECT_ID":"2023-054R","EPOCH":"2026-04-04T06:08:43.134720","MEAN_MOTION":15.26590858,"ECCENTRICITY":0.00014321,"INCLINATION":97.2821,"RA_OF_ASC_NODE":341.7127,"ARG_OF_PERICENTER":8.0979,"MEAN_ANOMALY":352.0282,"EPHEMERIS_TYPE":0,"CLASSIFICATION_TYPE":"U","NORAD_CAT_ID":56193,"ELEMENT_SET_NO":999,"REV_AT_EPOCH":16574,"BSTAR":0.00041952288,"MEAN_MOTION_DOT":0.00010915,"MEAN_MOTION_DDOT":0},{"OBJECT_NAME":"HAWK-7C","OBJECT_ID":"2023-054Y","EPOCH":"2026-04-04T06:08:33.769824","MEAN_MOTION":15.26587957,"ECCENTRICITY":0.00010811,"INCLINATION":97.2797,"RA_OF_ASC_NODE":342.5051,"ARG_OF_PERICENTER":346.1807,"MEAN_ANOMALY":13.9403,"EPHEMERIS_TYPE":0,"CLASSIFICATION_TYPE":"U","NORAD_CAT_ID":56200,"ELEMENT_SET_NO":999,"REV_AT_EPOCH":16574,"BSTAR":0.00041768014,"MEAN_MOTION_DOT":0.00010866,"MEAN_MOTION_DDOT":0}]
