HAWK-6A                 
1 55327U 23011D   26094.26171655  .00010319  00000+0  44689-3 0  9990
2 55327  40.5000  61.4961 0004207 236.1615 123.8794 15.22257812176583
HAWK-7A                 
1 56191U 23054P   26094.25615022  .00013767  00000+0  52820-3 0  9993
2 56191  97.2796 343.4757 0001661 335.9513  24.1648 15.26593098165746
HAWK-7B                 
1 56193U 23054R   26094.25605480  .00010915  00000+0  41952-3 0  9998
2 56193  97.2821 341.7127 0001432   8.0979 352.0282 15.26590858165747
HAWK-7C                 
1 56200U 23054Y   26094.25594641  .00010866  00000+0  41768-3 0  9993
2 56200  97.2797 342.5051 0001081 346.1807  13.9403 15.26587957165743
